start=new Date('2022-08-27T00:00:00.000Z').valueOf();
sats=[{"OBJECT_TYPE":"PAYLOAD","ECCENTRICITY":"0.00020910","APOAPSIS":"541.174","CENTER_NAME":"EARTH","EPOCH":"2022-08-26T22:00:00.999936","CLASSIFICATION_TYPE":"U","REF_FRAME":"TEME","MEAN_MOTION":"15.08846001","ELEMENT_SET_NO":"999","PERIOD":"95.437","TIME_SYSTEM":"UTC","MEAN_ELEMENT_THEORY":"SGP4","MEAN_ANOMALY":"308.1535","FILE":"3548620","DECAY_DATE":null,"SITE":"AFWTR","TLE_LINE2":"2 52553  53.2173 163.6134 0002091  58.0474 308.1535 15.08846001  1309","GP_ID":"211080578","RA_OF_ASC_NODE":"163.6134","EPHEMERIS_TYPE":"0","MEAN_MOTION_DDOT":"0.0000000000000","NORAD_CAT_ID":"52553","SEMIMAJOR_AXIS":"6917.862","MEAN_MOTION_DOT":"-0.00024377","INCLINATION":"53.2173","OBJECT_NAME":"STARLINK-3858","COUNTRY_CODE":"US","TLE_LINE1":"1 52553U 22051W   22238.91667824 -.00024377  00000-0 -15184-2 0  9996","ARG_OF_PERICENTER":"58.0474","LAUNCH_DATE":"2022-05-13","BSTAR":"-0.00151840000000","OBJECT_ID":"2022-051W","PERIAPSIS":"538.281","REV_AT_EPOCH":"130","RCS_SIZE":"LARGE"},{"MEAN_MOTION":"15.08835085","REF_FRAME":"TEME","CLASSIFICATION_TYPE":"U","EPOCH":"2022-08-26T22:00:00.999936","CENTER_NAME":"EARTH","APOAPSIS":"541.500","ECCENTRICITY":"0.00025150","OBJECT_TYPE":"PAYLOAD","DECAY_DATE":null,"FILE":"3548620","SITE":"AFWTR","MEAN_ANOMALY":"101.5871","MEAN_ELEMENT_THEORY":"SGP4","TIME_SYSTEM":"UTC","PERIOD":"95.438","ELEMENT_SET_NO":"999","INCLINATION":"53.2173","OBJECT_NAME":"STARLINK-3770","MEAN_MOTION_DOT":"-0.00007846","SEMIMAJOR_AXIS":"6917.895","NORAD_CAT_ID":"52554","MEAN_MOTION_DDOT":"0.0000000000000","RA_OF_ASC_NODE":"168.6293","EPHEMERIS_TYPE":"0","GP_ID":"211080295","TLE_LINE2":"2 52554  53.2173 168.6293 0002515  57.0694 101.5871 15.08835085  1303","RCS_SIZE":"LARGE","OBJECT_ID":"2022-051X","PERIAPSIS":"538.021","REV_AT_EPOCH":"130","BSTAR":"-0.00047543000000","LAUNCH_DATE":"2022-05-13","ARG_OF_PERICENTER":"57.0694","TLE_LINE1":"1 52554U 22051X   22238.91667824 -.00007846  00000-0 -47543-3 0  9994","COUNTRY_CODE":"US"},{"OBJECT_ID":"2022-051Y","PERIAPSIS":"538.523","REV_AT_EPOCH":"130","RCS_SIZE":"LARGE","BSTAR":"-0.00171070000000","LAUNCH_DATE":"2022-05-13","COUNTRY_CODE":"US","TLE_LINE1":"1 52555U 22051Y   22238.91667824 -.00027432  00000-0 -17107-2 0  9990","ARG_OF_PERICENTER":"74.2252","MEAN_MOTION_DOT":"-0.00027432","SEMIMAJOR_AXIS":"6917.791","OBJECT_NAME":"STARLINK-3949","INCLINATION":"53.2172","NORAD_CAT_ID":"52555","GP_ID":"211081142","MEAN_MOTION_DDOT":"0.0000000000000","EPHEMERIS_TYPE":"0","RA_OF_ASC_NODE":"163.6115","TLE_LINE2":"2 52555  53.2172 163.6115 0001638  74.2252 331.9319 15.08869155  1308","SITE":"AFWTR","FILE":"3548620","DECAY_DATE":null,"MEAN_ANOMALY":"331.9319","MEAN_ELEMENT_THEORY":"SGP4","TIME_SYSTEM":"UTC","ELEMENT_SET_NO":"999","PERIOD":"95.436","REF_FRAME":"TEME","MEAN_MOTION":"15.08869155","EPOCH":"2022-08-26T22:00:00.999936","CLASSIFICATION_TYPE":"U","APOAPSIS":"540.789","CENTER_NAME":"EARTH","OBJECT_TYPE":"PAYLOAD","ECCENTRICITY":"0.00016380"},{"MEAN_ELEMENT_THEORY":"SGP4","MEAN_ANOMALY":"119.9853","FILE":"3548620","DECAY_DATE":null,"SITE":"AFWTR","PERIOD":"95.437","ELEMENT_SET_NO":"999","TIME_SYSTEM":"UTC","CLASSIFICATION_TYPE":"U","EPOCH":"2022-08-26T22:00:00.999936","REF_FRAME":"TEME","MEAN_MOTION":"15.08855356","ECCENTRICITY":"0.00027490","OBJECT_TYPE":"PAYLOAD","CENTER_NAME":"EARTH","APOAPSIS":"541.600","RCS_SIZE":"LARGE","PERIAPSIS":"537.797","REV_AT_EPOCH":"130","OBJECT_ID":"2022-051Z","ARG_OF_PERICENTER":"58.6258","COUNTRY_CODE":"US","TLE_LINE1":"1 52556U 22051Z   22238.91667824 -.00018594  00000-0 -11526-2 0  9999","LAUNCH_DATE":"2022-05-13","BSTAR":"-0.00115260000000","NORAD_CAT_ID":"52556","OBJECT_NAME":"STARLINK-3763","INCLINATION":"53.2173","SEMIMAJOR_AXIS":"6917.833","MEAN_MOTION_DOT":"-0.00018594","TLE_LINE2":"2 52556  53.2173 168.6360 0002749  58.6258 119.9853 15.08855356  1308","RA_OF_ASC_NODE":"168.6360","EPHEMERIS_TYPE":"0","MEAN_MOTION_DDOT":"0.0000000000000","GP_ID":"211080441"},{"NORAD_CAT_ID":"52557","SEMIMAJOR_AXIS":"6917.857","MEAN_MOTION_DOT":"-0.00026794","INCLINATION":"53.2189","OBJECT_NAME":"STARLINK-3943","TLE_LINE2":"2 52557  53.2189 163.6130 0001539  66.1321  40.0583 15.08847571  1301","GP_ID":"211080996","EPHEMERIS_TYPE":"0","RA_OF_ASC_NODE":"163.6130","MEAN_MOTION_DDOT":"0.0000000000000","PERIAPSIS":"538.658","OBJECT_ID":"2022-051AA","REV_AT_EPOCH":"130","RCS_SIZE":"LARGE","TLE_LINE1":"1 52557U 22051AA  22238.91667824 -.00026794  00000-0 -16713-2 0  9994","COUNTRY_CODE":"US","ARG_OF_PERICENTER":"66.1321","LAUNCH_DATE":"2022-05-13","BSTAR":"-0.00167130000000","EPOCH":"2022-08-26T22:00:00.999936","CLASSIFICATION_TYPE":"U","REF_FRAME":"TEME","MEAN_MOTION":"15.08847571","ECCENTRICITY":"0.00015390","OBJECT_TYPE":"PAYLOAD","APOAPSIS":"540.787","CENTER_NAME":"EARTH","MEAN_ELEMENT_THEORY":"SGP4","MEAN_ANOMALY":"40.0583","SITE":"AFWTR","FILE":"3548620","DECAY_DATE":null,"ELEMENT_SET_NO":"999","PERIOD":"95.437","TIME_SYSTEM":"UTC"},{"MEAN_ELEMENT_THEORY":"SGP4","SITE":"AFWTR","FILE":"3548620","DECAY_DATE":null,"MEAN_ANOMALY":"40.5778","ELEMENT_SET_NO":"999","PERIOD":"95.435","TIME_SYSTEM":"UTC","EPOCH":"2022-08-26T22:00:00.999936","CLASSIFICATION_TYPE":"U","MEAN_MOTION":"15.08876087","REF_FRAME":"TEME","ECCENTRICITY":"0.00023530","OBJECT_TYPE":"PAYLOAD","APOAPSIS":"541.263","CENTER_NAME":"EARTH","PERIAPSIS":"538.007","OBJECT_ID":"2022-051AB","REV_AT_EPOCH":"130","RCS_SIZE":"LARGE","COUNTRY_CODE":"US","TLE_LINE1":"1 52558U 22051AB  22238.91667824 -.00043979  00000-0 -27592-2 0  9996","ARG_OF_PERICENTER":"60.5951","BSTAR":"-0.00275920000000","LAUNCH_DATE":"2022-05-13","NORAD_CAT_ID":"52558","MEAN_MOTION_DOT":"-0.00043979","SEMIMAJOR_AXIS":"6917.770","OBJECT_NAME":"STARLINK-3954","INCLINATION":"53.2088","TLE_LINE2":"2 52558  53.2088 153.6578 0002353  60.5951  40.5778 15.08876087  1302","GP_ID":"211080713","MEAN_MOTION_DDOT":"0.0000000000000","EPHEMERIS_TYPE":"0","RA_OF_ASC_NODE":"153.6578"},{"TIME_SYSTEM":"UTC","PERIOD":"95.437","ELEMENT_SET_NO":"999","FILE":"3548620","SITE":"AFWTR","DECAY_DATE":null,"MEAN_ANOMALY":"71.5419","MEAN_ELEMENT_THEORY":"SGP4","CENTER_NAME":"EARTH","APOAPSIS":"541.382","ECCENTRICITY":"0.00024320","OBJECT_TYPE":"PAYLOAD","REF_FRAME":"TEME","MEAN_MOTION":"15.08854961","CLASSIFICATION_TYPE":"U","EPOCH":"2022-08-26T22:00:00.999936","BSTAR":"-0.00175220000000","LAUNCH_DATE":"2022-05-13","ARG_OF_PERICENTER":"64.4569","TLE_LINE1":"1 52559U 22051AC  22238.91667824 -.00028079  00000-0 -17522-2 0  9993","COUNTRY_CODE":"US","RCS_SIZE":"LARGE","PERIAPSIS":"538.017","REV_AT_EPOCH":"130","OBJECT_ID":"2022-051AC","MEAN_MOTION_DDOT":"0.0000000000000","RA_OF_ASC_NODE":"153.6235","EPHEMERIS_TYPE":"0","GP_ID":"211081306","TLE_LINE2":"2 52559  53.2156 153.6235 0002432  64.4569  71.5419 15.08854961  1308","INCLINATION":"53.2156","OBJECT_NAME":"STARLINK-3953","MEAN_MOTION_DOT":"-0.00028079","SEMIMAJOR_AXIS":"6917.835","NORAD_CAT_ID":"52559"},{"MEAN_MOTION":"15.08847315","REF_FRAME":"TEME","EPOCH":"2022-08-26T22:00:00.999936","CLASSIFICATION_TYPE":"U","APOAPSIS":"541.378","CENTER_NAME":"EARTH","ECCENTRICITY":"0.00023920","OBJECT_TYPE":"PAYLOAD","MEAN_ANOMALY":"59.9432","DECAY_DATE":null,"FILE":"3548620","SITE":"AFWTR","MEAN_ELEMENT_THEORY":"SGP4","TIME_SYSTEM":"UTC","ELEMENT_SET_NO":"999","PERIOD":"95.437","SEMIMAJOR_AXIS":"6917.858","MEAN_MOTION_DOT":"-0.00029202","OBJECT_NAME":"STARLINK-3956","INCLINATION":"53.2158","NORAD_CAT_ID":"52560","GP_ID":"211080858","EPHEMERIS_TYPE":"0","RA_OF_ASC_NODE":"153.6250","MEAN_MOTION_DDOT":"0.0000000000000","TLE_LINE2":"2 52560  53.2158 153.6250 0002392  61.2225  59.9432 15.08847315  1308","PERIAPSIS":"538.068","OBJECT_ID":"2022-051AD","REV_AT_EPOCH":"130","RCS_SIZE":"LARGE","LAUNCH_DATE":"2022-05-13","BSTAR":"-0.00182370000000","COUNTRY_CODE":"US","TLE_LINE1":"1 52560U 22051AD  22238.91667824 -.00029202  00000-0 -18237-2 0  9998","ARG_OF_PERICENTER":"61.2225"},{"ECCENTRICITY":"0.00027280","OBJECT_TYPE":"PAYLOAD","APOAPSIS":"541.591","CENTER_NAME":"EARTH","EPOCH":"2022-08-26T22:00:00.999936","CLASSIFICATION_TYPE":"U","REF_FRAME":"TEME","MEAN_MOTION":"15.08853599","ELEMENT_SET_NO":"999","PERIOD":"95.437","TIME_SYSTEM":"UTC","MEAN_ELEMENT_THEORY":"SGP4","MEAN_ANOMALY":"160.2681","FILE":"3548620","DECAY_DATE":null,"SITE":"AFWTR","TLE_LINE2":"2 52561  53.2174 168.6407 0002728  58.4138 160.2681 15.08853599  1304","GP_ID":"211080579","EPHEMERIS_TYPE":"0","RA_OF_ASC_NODE":"168.6407","MEAN_MOTION_DDOT":"0.0000000000000","NORAD_CAT_ID":"52561","SEMIMAJOR_AXIS":"6917.839","MEAN_MOTION_DOT":"-0.00017270","INCLINATION":"53.2174","OBJECT_NAME":"STARLINK-3955","TLE_LINE1":"1 52561U 22051AE  22238.91667824 -.00017270  00000-0 -10691-2 0  9997","COUNTRY_CODE":"US","ARG_OF_PERICENTER":"58.4138","LAUNCH_DATE":"2022-05-13","BSTAR":"-0.00106910000000","REV_AT_EPOCH":"130","PERIAPSIS":"537.817","OBJECT_ID":"2022-051AE","RCS_SIZE":"LARGE"},{"REF_FRAME":"TEME","MEAN_MOTION":"15.08873061","EPOCH":"2022-08-26T22:00:00.999936","CLASSIFICATION_TYPE":"U","APOAPSIS":"541.053","CENTER_NAME":"EARTH","ECCENTRICITY":"0.00020360","OBJECT_TYPE":"PAYLOAD","MEAN_ANOMALY":"100.6989","DECAY_DATE":null,"FILE":"3548620","SITE":"AFWTR","MEAN_ELEMENT_THEORY":"SGP4","TIME_SYSTEM":"UTC","ELEMENT_SET_NO":"999","PERIOD":"95.435","SEMIMAJOR_AXIS":"6917.779","MEAN_MOTION_DOT":"-0.00072573","INCLINATION":"53.2148","OBJECT_NAME":"STARLINK-3957","NORAD_CAT_ID":"52562","GP_ID":"211080296","RA_OF_ASC_NODE":"153.6218","EPHEMERIS_TYPE":"0","MEAN_MOTION_DDOT":"0.0000000000000","TLE_LINE2":"2 52562  53.2148 153.6218 0002036  60.5001 100.6989 15.08873061  1300","PERIAPSIS":"538.236","OBJECT_ID":"2022-051AF","REV_AT_EPOCH":"130","RCS_SIZE":"LARGE","LAUNCH_DATE":"2022-05-13","BSTAR":"-0.00458380000000","COUNTRY_CODE":"US","TLE_LINE1":"1 52562U 22051AF  22238.91667824 -.00072573  00000-0 -45838-2 0  9996","ARG_OF_PERICENTER":"60.5001"}];
